[{"OBJECT_NAME":"STARLINK-30077","OBJECT_ID":"2023-107D","EPOCH":"2026-03-09T02:47:30.883488","MEAN_MOTION":15.27564952,"ECCENTRICITY":0.00010009,"INCLINATION":43.0018,"RA_OF_ASC_NODE":338.9783,"ARG_OF_PERICENTER":268.7747,"MEAN_ANOMALY":91.299,"EPHEMERIS_TYPE":0,"CLASSIFICATION_TYPE":"U","NORAD_CAT_ID":57460,"ELEMENT_SET_NO":999,"REV_AT_EPOCH":14506,"BSTAR":-3.6264863e-5,"MEAN_MOTION_DOT":-1.259e-5,"MEAN_MOTION_DDOT":0},{"OBJECT_NAME":"OBJECT B","OBJECT_ID":"2024-203B","EPOCH":"2026-03-09T23:52:52.928256","MEAN_MOTION":15.27506959,"ECCENTRICITY":0.00103904,"INCLINATION":97.4268,"RA_OF_ASC_NODE":139.5887,"ARG_OF_PERICENTER":321.1475,"MEAN_ANOMALY":38.9016,"EPHEMERIS_TYPE":0,"CLASSIFICATION_TYPE":"U","NORAD_CAT_ID":61870,"ELEMENT_SET_NO":999,"REV_AT_EPOCH":7381,"BSTAR":0.00063263842,"MEAN_MOTION_DOT":0.00016997,"MEAN_MOTION_DDOT":0}]
